{"type": "FeatureCollection", "features": [ {"type": "Feature", "properties": {"norad_id": 66052, "name": "HRC MONOBLOCK CAMERA", "group": "stations", "lat": -26.866360747426082, "lon": 93.30210561238208, "alt_km": 408.01060716914617, "timestamp": "2025-12-17T15:50:08.541368+00:00", "meta": {"OBJECT_NAME": "HRC MONOBLOCK CAMERA", "OBJECT_ID": "1998-067XR", "EPOCH": "2025-12-17T08:16:19.927776", "MEAN_MOTION": 15.5446421, "ECCENTRICITY": 0.00027548, "INCLINATION": 51.6293, "RA_OF_ASC_NODE": 118.5398, "ARG_OF_PERICENTER": 204.8669, "MEAN_ANOMALY": 155.219, "EPHEMERIS_TYPE": 0, "CLASSIFICATION_TYPE": "U", "NORAD_CAT_ID": 66052, "ELEMENT_SET_NO": 999, "REV_AT_EPOCH": 955, "BSTAR": 0.00046391624, "MEAN_MOTION_DOT": 0.0003073, "MEAN_MOTION_DDOT": 0}, "tle": {"line1": "1 66052U 98067XR  25351.34467509  .00030730  00000+0  46392-3 0  9992", "line2": "2 66052  51.6293 118.5398 0002754 204.8669 155.2190 15.54464210  9559"}}, "geometry": {"type": "Point", "coordinates": [93.30210561238208, -26.866360747426082]}}, {"type": "Feature", "properties": {"norad_id": 66174, "name": "HTV-X1", "group": "stations", "lat": 34.27900308111953, "lon": -94.57254482382164, "alt_km": 414.62896444211765, "timestamp": "2025-12-17T15:50:08.541379+00:00", "meta": {"OBJECT_NAME": "HTV-X1", "OBJECT_ID": "2025-241A", "EPOCH": "2025-12-17T01:19:48.717408", "MEAN_MOTION": 15.49629327, "ECCENTRICITY": 0.00031735, "INCLINATION": 51.6309, "RA_OF_ASC_NODE": 121.1077, "ARG_OF_PERICENTER": 260.4156, "MEAN_ANOMALY": 99.6474, "EPHEMERIS_TYPE": 0, "CLASSIFICATION_TYPE": "U", "NORAD_CAT_ID": 66174, "ELEMENT_SET_NO": 999, "REV_AT_EPOCH": 51, "BSTAR": 0.00014583435, "MEAN_MOTION_DOT": 7.77e-05, "MEAN_MOTION_DDOT": 0}, "tle": {"line1": "1 66174U 25241A   25351.05542497  .00007770  00000+0  14583-3 0  9994", "line2": "2 66174  51.6309 121.1077 0003173 260.4156  99.6474 15.49629327   510"}}, "geometry": {"type": "Point", "coordinates": [-94.57254482382164, 34.27900308111953]}}, {"type": "Feature", "properties": {"norad_id": 66515, "name": "SZ-21 MODULE", "group": "stations", "lat": 26.870172535453918, "lon": 21.025943768957934, "alt_km": 377.08072976541825, "timestamp": "2025-12-17T15:50:08.541391+00:00", "meta": {"OBJECT_NAME": "SZ-21 MODULE", "OBJECT_ID": "2025-246C", "EPOCH": "2025-12-17T06:26:59.040960", "MEAN_MOTION": 15.62718015, "ECCENTRICITY": 0.00059901, "INCLINATION": 41.4771, "RA_OF_ASC_NODE": 348.414, "ARG_OF_PERICENTER": 284.3104, "MEAN_ANOMALY": 75.707, "EPHEMERIS_TYPE": 0, "CLASSIFICATION_TYPE": "U", "NORAD_CAT_ID": 66515, "ELEMENT_SET_NO": 999, "REV_AT_EPOCH": 515, "BSTAR": 0.00025031156, "MEAN_MOTION_DOT": 0.00022864, "MEAN_MOTION_DDOT": 0}, "tle": {"line1": "1 66515U 25246C   25351.26873890  .00022864  00000+0  25031-3 0  9996", "line2": "2 66515  41.4771 348.4140 0005990 284.3104  75.7070 15.62718015  5151"}}, "geometry": {"type": "Point", "coordinates": [21.025943768957934, 26.870172535453918]}}, {"type": "Feature", "properties": {"norad_id": 66645, "name": "SHENZHOU-22", "group": "stations", "lat": 39.863327196745374, "lon": 57.844973279142934, "alt_km": 377.6606698876549, "timestamp": "2025-12-17T15:50:08.541404+00:00", "meta": {"OBJECT_NAME": "SHENZHOU-22", "OBJECT_ID": "2025-272A", "EPOCH": "2025-12-17T07:49:42.593088", "MEAN_MOTION": 15.59373916, "ECCENTRICITY": 0.0007759, "INCLINATION": 41.4681, "RA_OF_ASC_NODE": 348.8601, "ARG_OF_PERICENTER": 70.4303, "MEAN_ANOMALY": 289.7373, "EPHEMERIS_TYPE": 0, "CLASSIFICATION_TYPE": "U", "NORAD_CAT_ID": 66645, "ELEMENT_SET_NO": 999, "REV_AT_EPOCH": 26357, "BSTAR": 0.00025118398, "MEAN_MOTION_DOT": 0.00020139, "MEAN_MOTION_DDOT": 0}, "tle": {"line1": "1 66645U 25272A   25351.32618742  .00020139  00000+0  25118-3 0  9998", "line2": "2 66645  41.4681 348.8601 0007759  70.4303 289.7373 15.59373916263579"}}, "geometry": {"type": "Point", "coordinates": [57.844973279142934, 39.863327196745374]}}, {"type": "Feature", "properties": {"norad_id": 66664, "name": "SOYUZ-MS 28", "group": "stations", "lat": 34.27900154538834, "lon": -94.5725427085805, "alt_km": 414.62896462013396, "timestamp": "2025-12-17T15:50:08.541415+00:00", "meta": {"OBJECT_NAME": "SOYUZ-MS 28", "OBJECT_ID": "2025-275A", "EPOCH": "2025-12-17T01:19:48.717408", "MEAN_MOTION": 15.49629327, "ECCENTRICITY": 0.00031735, "INCLINATION": 51.6309, "RA_OF_ASC_NODE": 121.1077, "ARG_OF_PERICENTER": 260.4156, "MEAN_ANOMALY": 99.6474, "EPHEMERIS_TYPE": 0, "CLASSIFICATION_TYPE": "U", "NORAD_CAT_ID": 66664, "ELEMENT_SET_NO": 999, "REV_AT_EPOCH": 128, "BSTAR": 0.00014583435, "MEAN_MOTION_DOT": 7.77e-05, "MEAN_MOTION_DDOT": 0}, "tle": {"line1": "1 66664U 25275A   25351.05542497  .00007770  00000+0  14583-3 0  9995", "line2": "2 66664  51.6309 121.1077 0003173 260.4156  99.6474 15.49629327  1289"}}, "geometry": {"type": "Point", "coordinates": [-94.5725427085805, 34.27900154538834]}}, {"type": "Feature", "properties": {"norad_id": 66906, "name": "1998-067XS", "group": "stations", "lat": -2.595227026067392, "lon": -59.931343359777266, "alt_km": 413.7021636575646, "timestamp": "2025-12-17T15:50:08.541426+00:00", "meta": {"OBJECT_NAME": "1998-067XS", "OBJECT_ID": "1998-067XS", "EPOCH": "2025-12-16T12:45:26.228448", "MEAN_MOTION": 15.50774437, "ECCENTRICITY": 0.00032711, "INCLINATION": 51.6305, "RA_OF_ASC_NODE": 123.6106, "ARG_OF_PERICENTER": 220.1232, "MEAN_ANOMALY": 139.9515, "EPHEMERIS_TYPE": 0, "CLASSIFICATION_TYPE": "U", "NORAD_CAT_ID": 66906, "ELEMENT_SET_NO": 999, "REV_AT_EPOCH": 220, "BSTAR": 0.00042417105, "MEAN_MOTION_DOT": 0.00024501, "MEAN_MOTION_DDOT": 0}, "tle": {"line1": "1 66906U 98067XS  25350.53155357  .00024501  00000+0  42417-3 0  9998", "line2": "2 66906  51.6305 123.6106 0003271 220.1232 139.9515 15.50774437  2203"}}, "geometry": {"type": "Point", "coordinates": [-59.931343359777266, -2.595227026067392]}}, {"type": "Feature", "properties": {"norad_id": 66907, "name": "1998-067XT", "group": "stations", "lat": -28.434347358514064, "lon": -36.65546383457786, "alt_km": 412.0704560018503, "timestamp": "2025-12-17T15:50:08.541437+00:00", "meta": {"OBJECT_NAME": "1998-067XT", "OBJECT_ID": "1998-067XT", "EPOCH": "2025-12-16T20:21:31.143168", "MEAN_MOTION": 15.51965497, "ECCENTRICITY": 0.00040676, "INCLINATION": 51.63, "RA_OF_ASC_NODE": 121.975, "ARG_OF_PERICENTER": 250.8278, "MEAN_ANOMALY": 109.2271, "EPHEMERIS_TYPE": 0, "CLASSIFICATION_TYPE": "U", "NORAD_CAT_ID": 66907, "ELEMENT_SET_NO": 999, "REV_AT_EPOCH": 225, "BSTAR": 0.00093338761, "MEAN_MOTION_DOT": 0.00057093, "MEAN_MOTION_DDOT": 0}, "tle": {"line1": "1 66907U 98067XT  25350.84827712  .00057093  00000+0  93339-3 0  9995", "line2": "2 66907  51.6300 121.9750 0004067 250.8278 109.2271 15.51965497  2252"}}, "geometry": {"type": "Point", "coordinates": [-36.65546383457786, -28.434347358514064]}}, {"type": "Feature", "properties": {"norad_id": 66908, "name": "1998-067XU", "group": "stations", "lat": -30.82682502129067, "lon": -33.85084815822029, "alt_km": 411.7473586957376, "timestamp": "2025-12-17T15:50:08.541449+00:00", "meta": {"OBJECT_NAME": "1998-067XU", "OBJECT_ID": "1998-067XU", "EPOCH": "2025-12-16T14:09:49.500000", "MEAN_MOTION": 15.5202573, "ECCENTRICITY": 0.00042401, "INCLINATION": 51.6296, "RA_OF_ASC_NODE": 123.2512, "ARG_OF_PERICENTER": 248.5284, "MEAN_ANOMALY": 111.5254, "EPHEMERIS_TYPE": 0, "CLASSIFICATION_TYPE": "U", "NORAD_CAT_ID": 66908, "ELEMENT_SET_NO": 999, "REV_AT_EPOCH": 221, "BSTAR": 0.00090601602, "MEAN_MOTION_DOT": 0.00055516, "MEAN_MOTION_DDOT": 0}, "tle": {"line1": "1 66908U 98067XU  25350.59015625  .00055516  00000+0  90602-3 0  9998", "line2": "2 66908  51.6296 123.2512 0004240 248.5284 111.5254 15.52025730  2213"}}, "geometry": {"type": "Point", "coordinates": [-33.85084815822029, -30.82682502129067]}}, {"type": "Feature", "properties": {"norad_id": 66909, "name": "SILVERSAT", "group": "stations", "lat": -33.670942341980435, "lon": -30.21913673021085, "alt_km": 411.53421847712343, "timestamp": "2025-12-17T15:50:08.541460+00:00", "meta": {"OBJECT_NAME": "SILVERSAT", "OBJECT_ID": "1998-067XV", "EPOCH": "2025-12-16T14:08:52.774080", "MEAN_MOTION": 15.52156791, "ECCENTRICITY": 0.00040754, "INCLINATION": 51.6305, "RA_OF_ASC_NODE": 123.2468, "ARG_OF_PERICENTER": 249.7085, "MEAN_ANOMALY": 110.3467, "EPHEMERIS_TYPE": 0, "CLASSIFICATION_TYPE": "U", "NORAD_CAT_ID": 66909, "ELEMENT_SET_NO": 999, "REV_AT_EPOCH": 221, "BSTAR": 0.00095917161, "MEAN_MOTION_DOT": 0.00059105, "MEAN_MOTION_DDOT": 0}, "tle": {"line1": "1 66909U 98067XV  25350.58949970  .00059105  00000+0  95917-3 0  9999", "line2": "2 66909  51.6305 123.2468 0004075 249.7085 110.3467 15.52156791  2218"}}, "geometry": {"type": "Point", "coordinates": [-30.21913673021085, -33.670942341980435]}}, {"type": "Feature", "properties": {"norad_id": 66910, "name": "1998-067XW", "group": "stations", "lat": -39.86554393265602, "lon": -20.668451084080772, "alt_km": 411.0679843708467, "timestamp": "2025-12-17T15:50:08.541470+00:00", "meta": {"OBJECT_NAME": "1998-067XW", "OBJECT_ID": "1998-067XW", "EPOCH": "2025-12-17T08:38:52.886112", "MEAN_MOTION": 15.52302683, "ECCENTRICITY": 0.00044955, "INCLINATION": 51.6301, "RA_OF_ASC_NODE": 119.3949, "ARG_OF_PERICENTER": 232.9871, "MEAN_ANOMALY": 127.0708, "EPHEMERIS_TYPE": 0, "CLASSIFICATION_TYPE": "U", "NORAD_CAT_ID": 66910, "ELEMENT_SET_NO": 999, "REV_AT_EPOCH": 233, "BSTAR": 0.00084033586, "MEAN_MOTION_DOT": 0.00051954, "MEAN_MOTION_DDOT": 0}, "tle": {"line1": "1 66910U 98067XW  25351.36033433  .00051954  00000+0  84034-3 0  9998", "line2": "2 66910  51.6301 119.3949 0004495 232.9871 127.0708 15.52302683  2338"}}, "geometry": {"type": "Point", "coordinates": [-20.668451084080772, -39.86554393265602]}}]}